[{"OBJECT_NAME":"TDRS 3","OBJECT_ID":"1988-091B","EPOCH":"2026-03-05T19:09:20.611872","MEAN_MOTION":1.00259845,"ECCENTRICITY":0.00441837,"INCLINATION":12.6797,"RA_OF_ASC_NODE":341.6841,"ARG_OF_PERICENTER":353.3967,"MEAN_ANOMALY":66.2018,"EPHEMERIS_TYPE":0,"CLASSIFICATION_TYPE":"U","NORAD_CAT_ID":19548,"ELEMENT_SET_NO":999,"REV_AT_EPOCH":12435,"BSTAR":0,"MEAN_MOTION_DOT":-3.03e-6,"MEAN_MOTION_DDOT":0},{"OBJECT_NAME":"HST","OBJECT_ID":"1990-037B","EPOCH":"2026-03-07T01:43:17.774400","MEAN_MOTION":15.29432289,"ECCENTRICITY":0.00018113,"INCLINATION":28.471,"RA_OF_ASC_NODE":57.8566,"ARG_OF_PERICENTER":100.2256,"MEAN_ANOMALY":259.8544,"EPHEMERIS_TYPE":0,"CLASSIFICATION_TYPE":"U","NORAD_CAT_ID":20580,"ELEMENT_SET_NO":999,"REV_AT_EPOCH":77291,"BSTAR":0.00029166201,"MEAN_MOTION_DOT":8.8e-5,"MEAN_MOTION_DDOT":0},{"OBJECT_NAME":"TDRS 5","OBJECT_ID":"1991-054B","EPOCH":"2026-03-07T06:02:50.299584","MEAN_MOTION":1.00267942,"ECCENTRICITY":0.0010414,"INCLINATION":14.0837,"RA_OF_ASC_NODE":354.5317,"ARG_OF_PERICENTER":278.0278,"MEAN_ANOMALY":175.5224,"EPHEMERIS_TYPE":0,"CLASSIFICATION_TYPE":"U","NORAD_CAT_ID":21639,"ELEMENT_SET_NO":999,"REV_AT_EPOCH":12669,"BSTAR":0,"MEAN_MOTION_DOT":8.4e-7,"MEAN_MOTION_DDOT":0},{"OBJECT_NAME":"TDRS 6","OBJECT_ID":"1993-003B","EPOCH":"2026-03-07T06:27:50.200128","MEAN_MOTION":1.00277703,"ECCENTRICITY":0.0005464,"INCLINATION":14.1809,"RA_OF_ASC_NODE":357.814,"ARG_OF_PERICENTER":200.0419,"MEAN_ANOMALY":18.1655,"EPHEMERIS_TYPE":0,"CLASSIFICATION_TYPE":"U","NORAD_CAT_ID":22314,"ELEMENT_SET_NO":999,"REV_AT_EPOCH":12138,"BSTAR":0,"MEAN_MOTION_DOT":-2.95e-6,"MEAN_MOTION_DDOT":0},{"OBJECT_NAME":"TDRS 7","OBJECT_ID":"1995-035B","EPOCH":"2026-03-07T14:33:58.289760","MEAN_MOTION":1.00275653,"ECCENTRICITY":0.00082953,"INCLINATION":13.4192,"RA_OF_ASC_NODE":348.8868,"ARG_OF_PERICENTER":47.8549,"MEAN_ANOMALY":76.1157,"EPHEMERIS_TYPE":0,"CLASSIFICATION_TYPE":"U","NORAD_CAT_ID":23613,"ELEMENT_SET_NO":999,"REV_AT_EPOCH":11223,"BSTAR":0,"MEAN_MOTION_DOT":-2.38e-6,"MEAN_MOTION_DDOT":0},{"OBJECT_NAME":"ISS (ZARYA)","OBJECT_ID":"1998-067A","EPOCH":"2026-03-07T12:18:20.403360","MEAN_MOTION":15.48507964,"ECCENTRICITY":0.00081324,"INCLINATION":51.6318,"RA_OF_ASC_NODE":83.1189,"ARG_OF_PERICENTER":167.0679,"MEAN_ANOMALY":193.052,"EPHEMERIS_TYPE":0,"CLASSIFICATION_TYPE":"U","NORAD_CAT_ID":25544,"ELEMENT_SET_NO":999,"REV_AT_EPOCH":55599,"BSTAR":0.00027601504,"MEAN_MOTION_DOT":0.00014539,"MEAN_MOTION_DDOT":0},{"OBJECT_NAME":"TERRA","OBJECT_ID":"1999-068A","EPOCH":"2026-03-07T14:28:51.979296","MEAN_MOTION":14.61012261,"ECCENTRICITY":0.00025739,"INCLINATION":97.9598,"RA_OF_ASC_NODE":120.1178,"ARG_OF_PERICENTER":156.4312,"MEAN_ANOMALY":323.6835,"EPHEMERIS_TYPE":0,"CLASSIFICATION_TYPE":"U","NORAD_CAT_ID":25994,"ELEMENT_SET_NO":999,"REV_AT_EPOCH":39477,"BSTAR":0.00013241389,"MEAN_MOTION_DOT":6.05e-6,"MEAN_MOTION_DDOT":0},{"OBJECT_NAME":"TDRS 8","OBJECT_ID":"2000-034A","EPOCH":"2026-03-07T14:06:31.226688","MEAN_MOTION":1.00275904,"ECCENTRICITY":0.00061452,"INCLINATION":12.5241,"RA_OF_ASC_NODE":32.1691,"ARG_OF_PERICENTER":309.7251,"MEAN_ANOMALY":119.83,"EPHEMERIS_TYPE":0,"CLASSIFICATION_TYPE":"U","NORAD_CAT_ID":26388,"ELEMENT_SET_NO":999,"REV_AT_EPOCH":9416,"BSTAR":0,"MEAN_MOTION_DOT":-1.96e-6,"MEAN_MOTION_DDOT":0},{"OBJECT_NAME":"TIMED","OBJECT_ID":"2001-055B","EPOCH":"2026-03-07T10:30:17.488224","MEAN_MOTION":14.95014644,"ECCENTRICITY":0.000302,"INCLINATION":74.0661,"RA_OF_ASC_NODE":79.8529,"ARG_OF_PERICENTER":277.7994,"MEAN_ANOMALY":82.2848,"EPHEMERIS_TYPE":0,"CLASSIFICATION_TYPE":"U","NORAD_CAT_ID":26998,"ELEMENT_SET_NO":999,"REV_AT_EPOCH":31561,"BSTAR":0.00018659463,"MEAN_MOTION_DOT":2.003e-5,"MEAN_MOTION_DDOT":0},{"OBJECT_NAME":"AQUA","OBJECT_ID":"2002-022A","EPOCH":"2026-03-07T15:07:15.932064","MEAN_MOTION":14.61971555,"ECCENTRICITY":5.786e-5,"INCLINATION":98.4173,"RA_OF_ASC_NODE":33.9574,"ARG_OF_PERICENTER":71.1611,"MEAN_ANOMALY":343.2161,"EPHEMERIS_TYPE":0,"CLASSIFICATION_TYPE":"U","NORAD_CAT_ID":27424,"ELEMENT_SET_NO":999,"REV_AT_EPOCH":26843,"BSTAR":0.00031372685,"MEAN_MOTION_DOT":1.523e-5,"MEAN_MOTION_DDOT":0},{"OBJECT_NAME":"SORCE","OBJECT_ID":"2003-004A","EPOCH":"2026-03-07T10:33:49.138848","MEAN_MOTION":15.03078213,"ECCENTRICITY":0.00161299,"INCLINATION":39.99,"RA_OF_ASC_NODE":121.9226,"ARG_OF_PERICENTER":37.8131,"MEAN_ANOMALY":322.3793,"EPHEMERIS_TYPE":0,"CLASSIFICATION_TYPE":"U","NORAD_CAT_ID":27651,"ELEMENT_SET_NO":999,"REV_AT_EPOCH":25658,"BSTAR":0.0003575882,"MEAN_MOTION_DOT":4.771e-5,"MEAN_MOTION_DDOT":0},{"OBJECT_NAME":"AURA","OBJECT_ID":"2004-026A","EPOCH":"2026-03-07T13:46:45.397920","MEAN_MOTION":14.6114368,"ECCENTRICITY":0.00010272,"INCLINATION":98.3308,"RA_OF_ASC_NODE":22.2633,"ARG_OF_PERICENTER":82.2153,"MEAN_ANOMALY":277.9164,"EPHEMERIS_TYPE":0,"CLASSIFICATION_TYPE":"U","NORAD_CAT_ID":28376,"ELEMENT_SET_NO":999,"REV_AT_EPOCH":15137,"BSTAR":0.00031532809,"MEAN_MOTION_DOT":1.503e-5,"MEAN_MOTION_DDOT":0},{"OBJECT_NAME":"SWIFT","OBJECT_ID":"2004-047A","EPOCH":"2026-03-07T15:01:17.960448","MEAN_MOTION":15.590648,"ECCENTRICITY":0.00036342,"INCLINATION":20.5529,"RA_OF_ASC_NODE":242.9053,"ARG_OF_PERICENTER":6.7903,"MEAN_ANOMALY":353.2591,"EPHEMERIS_TYPE":0,"CLASSIFICATION_TYPE":"U","NORAD_CAT_ID":28485,"ELEMENT_SET_NO":999,"REV_AT_EPOCH":17094,"BSTAR":0.00064494148,"MEAN_MOTION_DOT":0.00053633,"MEAN_MOTION_DDOT":0},{"OBJECT_NAME":"THEMIS A","OBJECT_ID":"2007-004A","EPOCH":"2026-03-06T06:06:07.379712","MEAN_MOTION":0.87846947,"ECCENTRICITY":0.8404679,"INCLINATION":6.7657,"RA_OF_ASC_NODE":120.0357,"ARG_OF_PERICENTER":177.7629,"MEAN_ANOMALY":194.1197,"EPHEMERIS_TYPE":0,"CLASSIFICATION_TYPE":"U","NORAD_CAT_ID":30580,"ELEMENT_SET_NO":999,"REV_AT_EPOCH":4037,"BSTAR":-0.005712,"MEAN_MOTION_DOT":-2.31e-6,"MEAN_MOTION_DDOT":0},{"OBJECT_NAME":"THEMIS D","OBJECT_ID":"2007-004D","EPOCH":"2026-03-07T06:21:26.453664","MEAN_MOTION":0.8783592,"ECCENTRICITY":0.8357374,"INCLINATION":6.6383,"RA_OF_ASC_NODE":84.5912,"ARG_OF_PERICENTER":216.13,"MEAN_ANOMALY":140.9261,"EPHEMERIS_TYPE":0,"CLASSIFICATION_TYPE":"U","NORAD_CAT_ID":30797,"ELEMENT_SET_NO":999,"REV_AT_EPOCH":4018,"BSTAR":0,"MEAN_MOTION_DOT":-2.9e-6,"MEAN_MOTION_DDOT":0},{"OBJECT_NAME":"THEMIS E","OBJECT_ID":"2007-004E","EPOCH":"2026-03-07T06:22:18.869952","MEAN_MOTION":0.8783767,"ECCENTRICITY":0.8361289,"INCLINATION":4.165,"RA_OF_ASC_NODE":99.746,"ARG_OF_PERICENTER":201.9271,"MEAN_ANOMALY":155.5234,"EPHEMERIS_TYPE":0,"CLASSIFICATION_TYPE":"U","NORAD_CAT_ID":30798,"ELEMENT_SET_NO":999,"REV_AT_EPOCH":6502,"BSTAR":0,"MEAN_MOTION_DOT":-2.9e-6,"MEAN_MOTION_DDOT":0},{"OBJECT_NAME":"FGRST (GLAST)","OBJECT_ID":"2008-029A","EPOCH":"2026-03-07T15:39:25.441056","MEAN_MOTION":15.23313641,"ECCENTRICITY":0.00080426,"INCLINATION":25.5811,"RA_OF_ASC_NODE":189.1749,"ARG_OF_PERICENTER":204.3824,"MEAN_ANOMALY":155.6334,"EPHEMERIS_TYPE":0,"CLASSIFICATION_TYPE":"U","NORAD_CAT_ID":33053,"ELEMENT_SET_NO":999,"REV_AT_EPOCH":98033,"BSTAR":0.0002121142,"MEAN_MOTION_DOT":5.521e-5,"MEAN_MOTION_DDOT":0}]
